{
  "type": "FeatureCollection",
  "features": [
    {
      "type": "Feature",
      "properties": {
        "norad_id": 26766,
        "name": "INTELSAT 10 (IS-10)",
        "group": "intelsat",
        "lat": -2.8165231267198214,
        "lon": 42.16490789210554,
        "alt_km": 36138.43121732938,
        "timestamp": "2025-12-24T14:43:28.663062+00:00",
        "meta_object_name": "INTELSAT 10 (IS-10)",
        "meta_object_id": "2001-019A",
        "meta_epoch": "2025-12-23T20:29:28.496256",
        "meta_mean_motion": 0.9907274,
        "meta_eccentricity": 0.00078795,
        "meta_inclination": 8.6541,
        "meta_ra_of_asc_node": 61.0445,
        "meta_arg_of_pericenter": 229.3993,
        "meta_mean_anomaly": 200.4709,
        "meta_ephemeris_type": 0,
        "meta_classification_type": "U",
        "meta_norad_cat_id": 26766,
        "meta_element_set_no": 999,
        "meta_rev_at_epoch": 4384,
        "meta_bstar": 0,
        "meta_mean_motion_dot": -1.1e-07,
        "meta_mean_motion_ddot": 0,
        "tle_line1": "1 26766U 01019A   25357.85380204 -.00000011  00000+0  00000+0 0  9991",
        "tle_line2": "2 26766   8.6541  61.0445 0007879 229.3993 200.4709  0.99072740 43840"
      },
      "geometry": {
        "type": "Point",
        "coordinates": [
          42.16490789210554,
          -2.8165231267198214
        ]
      }
    },
    {
      "type": "Feature",
      "properties": {
        "norad_id": 26900,
        "name": "INTELSAT 902 (IS-902)",
        "group": "intelsat",
        "lat": -1.0154020458557378,
        "lon": -95.98426754201276,
        "alt_km": 35768.39903664142,
        "timestamp": "2025-12-24T14:43:28.663086+00:00",
        "meta_object_name": "INTELSAT 902 (IS-902)",
        "meta_object_id": "2001-039A",
        "meta_epoch": "2025-12-15T13:09:02.081664",
        "meta_mean_motion": 1.0027087,
        "meta_eccentricity": 0.00045028,
        "meta_inclination": 5.6536,
        "meta_ra_of_asc_node": 74.0372,
        "meta_arg_of_pericenter": 189.6359,
        "meta_mean_anomaly": 327.9329,
        "meta_ephemeris_type": 0,
        "meta_classification_type": "U",
        "meta_norad_cat_id": 26900,
        "meta_element_set_no": 999,
        "meta_rev_at_epoch": 8885,
        "meta_bstar": 0,
        "meta_mean_motion_dot": -2.65e-06,
        "meta_mean_motion_ddot": 0,
        "tle_line1": "1 26900U 01039A   25349.54794076 -.00000265  00000+0  00000+0 0  9997",
        "tle_line2": "2 26900   5.6536  74.0372 0004502 189.6359 327.9329  1.00270870 88858"
      },
      "geometry": {
        "type": "Point",
        "coordinates": [
          -95.98426754201276,
          -1.0154020458557378
        ]
      }
    },
    {
      "type": "Feature",
      "properties": {
        "norad_id": 27380,
        "name": "INTELSAT 904 (IS-904)",
        "group": "intelsat",
        "lat": -3.3976221762178005,
        "lon": -77.40799850617722,
        "alt_km": 35779.539243500265,
        "timestamp": "2025-12-24T14:43:28.663103+00:00",
        "meta_object_name": "INTELSAT 904 (IS-904)",
        "meta_object_id": "2002-007A",
        "meta_epoch": "2025-12-23T23:15:16.271712",
        "meta_mean_motion": 1.00273356,
        "meta_eccentricity": 0.00018804,
        "meta_inclination": 6.4809,
        "meta_ra_of_asc_node": 71.3034,
        "meta_arg_of_pericenter": 245.293,
        "meta_mean_anomaly": 93.4817,
        "meta_ephemeris_type": 0,
        "meta_classification_type": "U",
        "meta_norad_cat_id": 27380,
        "meta_element_set_no": 999,
        "meta_rev_at_epoch": 5000,
        "meta_bstar": 0,
        "meta_mean_motion_dot": -2.07e-06,
        "meta_mean_motion_ddot": 0,
        "tle_line1": "1 27380U 02007A   25357.96893833 -.00000207  00000+0  00000+0 0  9998",
        "tle_line2": "2 27380   6.4809  71.3034 0001880 245.2930  93.4817  1.00273356 50003"
      },
      "geometry": {
        "type": "Point",
        "coordinates": [
          -77.40799850617722,
          -3.3976221762178005
        ]
      }
    },
    {
      "type": "Feature",
      "properties": {
        "norad_id": 27426,
        "name": "DIRECTV 5 (TEMPO 1)",
        "group": "intelsat",
        "lat": 3.5557344552590138,
        "lon": -155.81901981627044,
        "alt_km": 35782.407350754605,
        "timestamp": "2025-12-24T14:43:28.663116+00:00",
        "meta_object_name": "DIRECTV 5 (TEMPO 1)",
        "meta_object_id": "2002-023A",
        "meta_epoch": "2025-12-24T05:01:47.604864",
        "meta_mean_motion": 1.00271646,
        "meta_eccentricity": 0.00032791,
        "meta_inclination": 4.4296,
        "meta_ra_of_asc_node": 77.5183,
        "meta_arg_of_pericenter": 203.0994,
        "meta_mean_anomaly": 137.6999,
        "meta_ephemeris_type": 0,
        "meta_classification_type": "U",
        "meta_norad_cat_id": 27426,
        "meta_element_set_no": 999,
        "meta_rev_at_epoch": 8636,
        "meta_bstar": 0,
        "meta_mean_motion_dot": -3.8e-07,
        "meta_mean_motion_ddot": 0,
        "tle_line1": "1 27426U 02023A   25358.20957876 -.00000038  00000+0  00000+0 0  9995",
        "tle_line2": "2 27426   4.4296  77.5183 0003279 203.0994 137.6999  1.00271646 86361"
      },
      "geometry": {
        "type": "Point",
        "coordinates": [
          -155.81901981627044,
          3.5557344552590138
        ]
      }
    },
    {
      "type": "Feature",
      "properties": {
        "norad_id": 27438,
        "name": "INTELSAT 905 (IS-905)",
        "group": "intelsat",
        "lat": 6.104663249536808,
        "lon": 177.12296888069125,
        "alt_km": 35787.047762094655,
        "timestamp": "2025-12-24T14:43:28.663130+00:00",
        "meta_object_name": "INTELSAT 905 (IS-905)",
        "meta_object_id": "2002-027A",
        "meta_epoch": "2025-12-23T05:41:27.377952",
        "meta_mean_motion": 1.00273243,
        "meta_eccentricity": 0.00027491,
        "meta_inclination": 6.3102,
        "meta_ra_of_asc_node": 71.9349,
        "meta_arg_of_pericenter": 206.5226,
        "meta_mean_anomaly": 121.7385,
        "meta_ephemeris_type": 0,
        "meta_classification_type": "U",
        "meta_norad_cat_id": 27438,
        "meta_element_set_no": 999,
        "meta_rev_at_epoch": 4959,
        "meta_bstar": 0,
        "meta_mean_motion_dot": 1.12e-06,
        "meta_mean_motion_ddot": 0,
        "tle_line1": "1 27438U 02027A   25357.23712243  .00000112  00000+0  00000+0 0  9993",
        "tle_line2": "2 27438   6.3102  71.9349 0002749 206.5226 121.7385  1.00273243 49592"
      },
      "geometry": {
        "type": "Point",
        "coordinates": [
          177.12296888069125,
          6.104663249536808
        ]
      }
    },
    {
      "type": "Feature",
      "properties": {
        "norad_id": 27445,
        "name": "GALAXY 3C (G-3C)",
        "group": "intelsat",
        "lat": 2.1502916178761273,
        "lon": -140.54603496917417,
        "alt_km": 35783.294993114854,
        "timestamp": "2025-12-24T14:43:28.663142+00:00",
        "meta_object_name": "GALAXY 3C (G-3C)",
        "meta_object_id": "2002-030A",
        "meta_epoch": "2025-12-24T05:48:02.087712",
        "meta_mean_motion": 1.00271386,
        "meta_eccentricity": 0.00010927,
        "meta_inclination": 3.2908,
        "meta_ra_of_asc_node": 80.3833,
        "meta_arg_of_pericenter": 84.2679,
        "meta_mean_anomaly": 280.5213,
        "meta_ephemeris_type": 0,
        "meta_classification_type": "U",
        "meta_norad_cat_id": 27445,
        "meta_element_set_no": 999,
        "meta_rev_at_epoch": 4474,
        "meta_bstar": 0,
        "meta_mean_motion_dot": -1.33e-06,
        "meta_mean_motion_ddot": 0,
        "tle_line1": "1 27445U 02030A   25358.24169083 -.00000133  00000+0  00000+0 0  9999",
        "tle_line2": "2 27445   3.2908  80.3833 0001092  84.2679 280.5213  1.00271386 44747"
      },
      "geometry": {
        "type": "Point",
        "coordinates": [
          -140.54603496917417,
          2.1502916178761273
        ]
      }
    },
    {
      "type": "Feature",
      "properties": {
        "norad_id": 27513,
        "name": "INTELSAT 906 (IS-906)",
        "group": "intelsat",
        "lat": -4.475737348783404,
        "lon": 18.590102164546046,
        "alt_km": 35791.401677860275,
        "timestamp": "2025-12-24T14:43:28.663155+00:00",
        "meta_object_name": "INTELSAT 906 (IS-906)",
        "meta_object_id": "2002-041A",
        "meta_epoch": "2025-12-23T18:34:28.015104",
        "meta_mean_motion": 1.00273398,
        "meta_eccentricity": 0.00062905,
        "meta_inclination": 5.3577,
        "meta_ra_of_asc_node": 75.1001,
        "meta_arg_of_pericenter": 202.0184,
        "meta_mean_anomaly": 158.2022,
        "meta_ephemeris_type": 0,
        "meta_classification_type": "U",
        "meta_norad_cat_id": 27513,
        "meta_element_set_no": 999,
        "meta_rev_at_epoch": 8527,
        "meta_bstar": 0,
        "meta_mean_motion_dot": 3.1e-07,
        "meta_mean_motion_ddot": 0,
        "tle_line1": "1 27513U 02041A   25357.77393536  .00000031  00000+0  00000+0 0  9992",
        "tle_line2": "2 27513   5.3577  75.1001 0006290 202.0184 158.2022  1.00273398 85270"
      },
      "geometry": {
        "type": "Point",
        "coordinates": [
          18.590102164546046,
          -4.475737348783404
        ]
      }
    }
  ]
}